[{"OBJECT_ID":"2012-008AV","OBJECT_NAME":"CZ-3C DEB","NORAD_CAT_ID":"48550","OBJECT_TYPE":"DEBRIS","PERIOD":"640.925","INCLINATION":"20.7671","ECCENTRICITY":"0.69637380","MEAN_MOTION":"2.24675115","TLE_LINE1":"1 48550U 12008AV  21271.59960493 -.00000200  00000-0  00000+0 0  9993","TLE_LINE2":"2 48550  20.7671   3.1475 6963738  24.5057 356.6883  2.24675115 51055"},{"OBJECT_ID":"2011-037PA","OBJECT_NAME":"FREGAT DEB","NORAD_CAT_ID":"48836","OBJECT_TYPE":"DEBRIS","PERIOD":"144.183","INCLINATION":"50.7993","ECCENTRICITY":"0.22842180","MEAN_MOTION":"9.98730029","TLE_LINE1":"1 48836U 11037PA  21271.03934641  .00136473  00000-0  20542+0 0  9990","TLE_LINE2":"2 48836  50.7993 208.9795 2284218  19.0921 348.2825  9.98730029 13860"},{"OBJECT_ID":"2014-055DH","OBJECT_NAME":"ATLAS 5 CENTAUR DEB","NORAD_CAT_ID":"49048","OBJECT_TYPE":"DEBRIS","PERIOD":"744.397","INCLINATION":"21.4008","ECCENTRICITY":"0.48423570","MEAN_MOTION":"1.93445212","TLE_LINE1":"1 49048U 14055DH  21272.39568117 -.00000149  00000-0  00000+0 0  9998","TLE_LINE2":"2 49048  21.4008 295.9367 4842357 259.6194  44.2727  1.93445212 13744"},{"OBJECT_ID":"2021-069C","OBJECT_NAME":"ARIANE 5 DEB (SYLDA)","NORAD_CAT_ID":"49057","OBJECT_TYPE":"DEBRIS","PERIOD":"627.726","INCLINATION":"3.2169","ECCENTRICITY":"0.72641930","MEAN_MOTION":"2.29399513","TLE_LINE1":"1 49057U 21069C   21271.79093207  .00009294  00000-0  36249-2 0  9993","TLE_LINE2":"2 49057   3.2169  69.0382 7264193 225.9636  45.1947  2.29399513  1353"}]